{
"type": "FeatureCollection",
"name": "run_boundary",
"crs": { "type": "name", "properties": { "name": "urn:ogc:def:crs:OGC:1.3:CRS84" } },
"features": [
{ "type": "Feature", "properties": { }, "geometry": { "type": "Polygon", "coordinates": [ [ [ 4.465891676703713, 7.680975317904461 ], [ 4.465854327001722, 7.680266364473472 ], [ 4.465747500070891, 7.679564476832812 ], [ 4.465572225024302, 7.678876414431413 ], [ 4.465330190129503, 7.678208803548005 ], [ 4.465023726539091, 7.677568073481734 ], [ 4.464655785831832, 7.676960394640625 ], [ 4.464229911580964, 7.676391619123798 ], [ 4.463750205223697, 7.675867224369514 ], [ 4.4632212865608, 7.675392260411363 ], [ 4.462648249266702, 7.674971301250404 ], [ 4.462036611838531, 7.674608400811209 ], [ 4.461392264456334, 7.674307053905828 ], [ 4.460721412265976, 7.67407016258131 ], [ 4.460030515630635, 7.673900008174814 ], [ 4.459326227925875, 7.673798229345207 ], [ 4.458615331476926, 7.673765806292678 ], [ 4.457904672254638, 7.673803051318316 ], [ 4.457201093958477, 7.673909605814581 ], [ 4.456511372120911, 7.674084443715729 ], [ 4.455842148867263, 7.674325881375069 ], [ 4.455199868958891, 7.674631593774122 ], [ 4.454590717735218, 7.674998636907755 ], [ 4.454020561551966, 7.675423476129941 ], [ 4.453494891288914, 7.675902020187443 ], [ 4.453018769471123, 7.676429660613867 ], [ 4.452596781512778, 7.67700131610506 ], [ 4.452232991553307, 7.677611481448595 ], [ 4.45193090331117, 7.678254280536553 ], [ 4.451693426332621, 7.67892352295109 ], [ 4.451522847960784, 7.679612763578161 ], [ 4.451420811295383, 7.680315364675289 ], [ 4.451388299355872, 7.681024559795837 ], [ 4.451425625600962, 7.681733518954107 ], [ 4.451532430896343, 7.682435414403696 ], [ 4.451707686960372, 7.683123486395577 ], [ 4.45194970625499, 7.683791108282477 ], [ 4.452256158227109, 7.684431850342376 ], [ 4.452624091744443, 7.685039541706349 ], [ 4.453049963510063, 7.685608329794031 ], [ 4.453529672182261, 7.686132736684062 ], [ 4.454058597871311, 7.686607711876488 ], [ 4.454631646632773, 7.687028680938523 ], [ 4.45524329952883, 7.687391589565096 ], [ 4.455887665785015, 7.687692942629538 ], [ 4.456558539530149, 7.687929837848094 ], [ 4.457249459572714, 7.688099993733956 ], [ 4.457953771637619, 7.688201771571418 ], [ 4.458664692463487, 7.688234191198416 ], [ 4.459375375142678, 7.688196940445498 ], [ 4.460078975074289, 7.688090378140304 ], [ 4.460768715894415, 7.687915530648672 ], [ 4.461437954748241, 7.687674081985842 ], [ 4.462080246274908, 7.687368357593157 ], [ 4.462689404688505, 7.68700130193666 ], [ 4.463259563357006, 7.686576450143619 ], [ 4.463785231305123, 7.686097893950372 ], [ 4.464261346096763, 7.685570242289669 ], [ 4.464683322587745, 7.684998576897402 ], [ 4.465047097079328, 7.684388403366484 ], [ 4.465349166447477, 7.683745598119477 ], [ 4.46558662187125, 7.683076351810901 ], [ 4.465757176835864, 7.682387109704461 ], [ 4.465859189141121, 7.681684509599477 ], [ 4.465891676703713, 7.680975317904461 ] ] ] } }
]
}
